STARLINK-30251          
1 57532U 23115M   26067.83471449  .00001905  00000+0  80691-4 0  9997
2 57532  43.0011   6.1686 0001006 298.1512  61.9237 15.26742221142226
FLOCK 4G-36             
1 62675U 25009BU  26068.70726311  .00013573  00000+0  51122-3 0  9993
2 62675  97.4053 151.0513 0003474 324.2456  35.8550 15.27209548 63701
